[{"OBJECT_NAME":"DRUMS","OBJECT_ID":"2021-102G","EPOCH":"2026-03-09T16:02:04.019712","MEAN_MOTION":15.19452308,"ECCENTRICITY":0.00145193,"INCLINATION":97.3433,"RA_OF_ASC_NODE":108.4998,"ARG_OF_PERICENTER":215.993,"MEAN_ANOMALY":144.0328,"EPHEMERIS_TYPE":0,"CLASSIFICATION_TYPE":"U","NORAD_CAT_ID":49401,"ELEMENT_SET_NO":999,"REV_AT_EPOCH":23846,"BSTAR":0.00031687422,"MEAN_MOTION_DOT":6.67e-5,"MEAN_MOTION_DDOT":0},{"OBJECT_NAME":"STARLINK-6314","OBJECT_ID":"2023-065AM","EPOCH":"2026-03-09T22:00:01.999584","MEAN_MOTION":15.13773236,"ECCENTRICITY":0.00022538,"INCLINATION":43.0003,"RA_OF_ASC_NODE":195.7729,"ARG_OF_PERICENTER":268.1969,"MEAN_ANOMALY":54.0345,"EPHEMERIS_TYPE":0,"CLASSIFICATION_TYPE":"U","NORAD_CAT_ID":56538,"ELEMENT_SET_NO":999,"REV_AT_EPOCH":567,"BSTAR":0.0040185916,"MEAN_MOTION_DOT":0.00074338,"MEAN_MOTION_DDOT":0}]
